1 26411U 00041B   13228.43520967  .00000409  00000-0  00000+0 0  9825
2 26411 136.3514 309.5498 7421668 122.0741 359.5824  0.44219367 11383
